ONEWEB-0195             
1 48240U 21031AG  23260.36964113 -.00000095  00000+0 -29207-3 0  9999
2 48240  87.9001 129.5133 0001872  64.9241 295.2083 13.14502415116275
ONEWEB-0201             
1 48241U 21031AH  23260.21317628 -.00000155  00000+0 -45365-3 0  9997
2 48241  87.8996 129.5833 0001713  73.8047 286.3271 13.14501857116484
ONEWEB-0207             
1 48242U 21031AJ  23260.18779903  .00000006  00000+0 -17913-4 0  9995
2 48242  87.8996 129.5558 0001478  76.9933 283.1362 13.14501972116399
ONEWEB-0208             
1 48243U 21031AK  23260.16559287  .00000342  00000+0  88758-3 0  9991
2 48243  87.8993 129.5773 0001852  68.4077 291.7250 13.14500497116401
ONEWEB-0200             
1 48244U 21031AL  23260.20575250 -.00000136  00000+0 -40129-3 0  9998
2 48244  87.9004 129.5568 0001853  67.2822 292.8504 13.14505811116335
ONEWEB-0217             
1 48245U 21031AM  23260.14655937 -.00000012  00000+0 -67964-4 0  9993
2 48245  87.9003 129.5538 0002016  65.7738 294.3602 13.14504417116273
ONEWEB-0211             
1 48767U 21045A   23260.51937667 -.00000035  00000+0 -12746-3 0  9993
2 48767  87.8940  99.0284 0001743  81.4754 278.6574 13.15549712112456
ONEWEB-0223             
1 48768U 21045B   23260.54049014  .00000116  00000+0  27468-3 0  9992
2 48768  87.8938  99.0288 0002110  77.9377 282.1990 13.15549669112440
